OBJECT_NAME,OBJECT_ID,EPOCH,MEAN_MOTION,ECCENTRICITY,INCLINATION,RA_OF_ASC_NODE,ARG_OF_PERICENTER,MEAN_ANOMALY,EPHEMERIS_TYPE,CLASSIFICATION_TYPE,NORAD_CAT_ID,ELEMENT_SET_NO,REV_AT_EPOCH,BSTAR,MEAN_MOTION_DOT,MEAN_MOTION_DDOT
AXIOM-3,2024-014A,2024-02-07T17:51:04.754592,15.53166738,0.0003966,51.6341,241.7703,216.167,248.7802,0,U,58815,999,307,-0.030887,-0.01760271,0
DALIAN-1 LIANLI,2023-063C,2024-02-07T08:51:02.367360,15.6866007,0.0011905,41.4667,161.7785,272.1556,121.1718,0,U,58816,999,309,0.0011155,0.00133128,0
SORAYA,2024-015A,2024-02-07T13:20:51.817920,14.41910641,0.0011243,64.5134,59.6519,257.1209,102.862,0,U,58817,999,264,0.0001009,2.24e-06,0
QAEM 100 R/B,2024-015B,2024-02-07T09:35:52.529856,14.43307354,0.0012311,64.5027,59.9651,289.6715,70.3042,0,U,58818,999,262,0.00015006,4e-06,0
QAEM 100 DEB,2024-015C,2024-01-28T13:23:08.938176,14.44281846,0.001093,64.4782,88.557,314.2129,45.8058,0,U,58819,999,116,0.015623,0.00054227,0
2024-016A,2024-016A,2024-02-07T12:10:45.847776,15.11452523,0.0013803,97.5234,114.6002,228.5343,131.4703,0,U,58820,999,231,0.00095807,0.00016197,0
2024-016B,2024-016B,2024-02-07T13:46:42.670272,15.11350893,0.0013719,97.5232,114.6641,228.4855,131.5198,0,U,58821,999,232,0.00070516,0.00011863,0
2024-016C,2024-016C,2024-02-07T13:46:24.062304,15.1135324,0.0014041,97.5222,114.6627,228.4648,131.5379,0,U,58822,999,232,0.00061068,0.00010265,0
2024-016D,2024-016D,2024-02-07T13:43:47.234208,15.11520438,0.0013956,97.5197,114.6603,232.3909,127.6055,0,U,58823,999,232,0.00057421,9.692e-05,0
2024-016E,2024-016E,2024-02-07T13:20:17.060064,15.53308929,0.0184263,97.6678,115.9413,329.062,29.9876,0,U,58824,999,237,0.00067244,0.00089568,4.2924e-06
2024-016F,2024-016F,2024-02-04T05:04:07.405248,15.11342253,0.0013514,97.5234,111.3533,241.6732,194.7075,0,U,58825,999,174,0.00067662,0.00011376,0
STARLINK-31233,2024-017A,2024-02-06T10:00:00.999936,15.67568809,0.0001248,53.1606,154.2213,51.9324,146.8545,0,U,58826,999,323,-0.017534,-0.01712215,0
STARLINK-31271,2024-017B,2024-02-06T06:00:00.999648,15.66908168,8.27e-05,53.1609,154.927,84.5566,310.1875,0,U,58827,999,322,-0.017725,-0.01687602,0
STARLINK-31222,2024-017C,2024-02-07T14:00:01.000224,15.63199571,0.0001095,53.1594,148.5034,87.4664,211.4027,0,U,58828,999,343,-0.020991,-0.01749349,0
STARLINK-31258,2024-017D,2024-02-07T14:00:01.000224,15.63198081,0.0001072,53.1593,148.5016,72.2638,227.4741,0,U,58829,999,343,-0.020997,-0.01749692,0
STARLINK-31253,2024-017E,2024-02-05T14:00:01.000224,15.70690518,0.0001222,53.1592,158.3211,72.5025,99.7395,0,U,58830,999,310,-0.01563,-0.01735502,0
STARLINK-31232,2024-017F,2024-02-07T14:00:01.000224,15.63195276,0.0001071,53.1594,148.4977,79.5409,221.9352,0,U,58831,999,343,-0.021001,-0.01749815,0
STARLINK-31263,2024-017G,2024-02-05T14:00:01.000224,15.70685767,0.0001488,53.1591,158.3177,61.18,112.8218,0,U,58832,999,320,-0.015605,-0.0173295,0
STARLINK-31175,2024-017H,2024-02-06T08:00:01.000224,15.6937615,0.0001334,53.1619,154.3553,85.5209,138.9009,0,U,58833,999,322,-0.016131,-0.01699693,0
STARLINK-31171,2024-017J,2024-02-06T18:00:00.999648,15.65617012,6.63e-05,53.1609,152.4302,49.413,309.1364,0,U,58834,999,330,-0.018246,-0.01652803,0
STARLINK-31246,2024-017K,2024-02-07T14:00:01.000224,15.63190213,9.28e-05,53.1593,148.4908,72.2023,232.7506,0,U,58835,999,343,-0.021012,-0.01750242,0
STARLINK-31251,2024-017L,2024-02-06T02:00:01.000224,15.68790388,0.0001191,53.1611,155.8427,49.9303,75.6071,0,U,58836,999,329,-0.01661,-0.01706821,0
STARLINK-31172,2024-017M,2024-02-07T14:00:01.000224,15.70204844,0.0001325,53.1638,148.1271,66.9545,59.4854,0,U,58837,999,342,-0.015858,-0.01726392,0
STARLINK-31249,2024-017N,2024-02-06T06:00:00.999648,15.68157842,7.27e-05,53.1605,155.019,78.3226,269.7177,0,U,58838,999,322,-0.016785,-0.01683002,0
STARLINK-31250,2024-017P,2024-02-07T14:00:01.000224,15.6318376,0.0001179,53.1593,148.4829,68.127,240.3006,0,U,58839,999,338,-0.020998,-0.01748939,0
STARLINK-31248,2024-017Q,2024-02-05T18:00:00.999648,15.70013822,0.0001067,53.1602,157.4782,50.8637,353.8086,0,U,58840,999,323,-0.015414,-0.01671705,0
STARLINK-31236,2024-017R,2024-02-05T18:00:00.999648,15.70012414,0.0001403,53.1603,157.4806,23.7997,19.9947,0,U,58841,999,314,-0.015364,-0.01667047,0
STARLINK-31228,2024-017S,2024-02-05T16:00:00.999936,15.70345204,9.52e-05,53.1591,157.888,59.2853,234.9325,0,U,58842,999,313,-0.015585,-0.01708862,0
STARLINK-31280,2024-017T,2024-02-06T02:00:01.000224,15.68791722,0.0001011,53.1594,155.8308,65.8477,64.9449,0,U,58843,999,320,-0.016743,-0.01718791,0
STARLINK-31269,2024-017U,2024-02-07T14:00:01.000224,15.63174878,0.0001094,53.1593,148.4705,69.0315,245.4785,0,U,58844,999,343,-0.021027,-0.01750501,0
